ONEWEB-0317             
1 49103U 21075AE  23255.05188667  .00000337  00000+0  90279-3 0  9992
2 49103  87.9060 191.2759 0002162  72.4212 287.7152 13.12444038103817
ONEWEB-0318             
1 49104U 21075AF  23254.54412403 -.00000032  00000+0 -11514-3 0  9993
2 49104  87.9232 176.2701 0001505  76.8720 283.2580 13.18684336104103
ONEWEB-0319             
1 49105U 21075AG  23255.36280233 -.00000136  00000+0 -38384-3 0  9998
2 49105  87.9226 206.3225 0001269  70.5709 289.5559 13.17650887101743
ONEWEB-0323             
1 49106U 21075AH  23255.34727678  .00000470  00000+0  12709-2 0  9997
2 49106  87.9061 191.2063 0001694  73.0979 287.0335 13.12445085103229
ONEWEB-0329             
1 49107U 21075AJ  23255.14134177 -.00000003  00000+0 -42083-4 0  9996
2 49107  87.9226 206.3690 0001814  71.7283 288.4045 13.17650008101694
ONEWEB-0330             
1 49108U 21075AK  23255.14345459 -.00000006  00000+0 -48068-4 0  9996
2 49108  87.9215 206.3839 0001982  68.6574 291.4769 13.17649965101734
ONEWEB-0292             
1 49186U 21083A   23254.50592720  .00000350  00000+0  92466-3 0  9995
2 49186  87.9084 161.1156 0001814  75.9217 284.2114 13.13467094 98380
ONEWEB-0303             
1 49187U 21083B   23255.07104770  .00000018  00000+0  14099-4 0  9991
2 49187  87.9233 176.1689 0001597  74.1032 286.0276 13.18687667 98269
